start=new Date('2023-04-01T00:00:00.000Z').valueOf();
sats=[{"APOAPSIS":"540.472","NORAD_CAT_ID":"49422","EPHEMERIS_TYPE":"0","INCLINATION":"53.2178","OBJECT_NAME":"STARLINK-3161","MEAN_ANOMALY":"265.1831","OBJECT_ID":"2021-104Q","DECAY_DATE":null,"LAUNCH_DATE":"2021-11-13","COUNTRY_CODE":"US","PERIAPSIS":"538.928","REV_AT_EPOCH":"7751","OBJECT_TYPE":"PAYLOAD","MEAN_MOTION_DOT":"0.00009825","SEMIMAJOR_AXIS":"6917.835","CENTER_NAME":"EARTH","FILE":"3875954","MEAN_MOTION_DDOT":"0.0000000000000","BSTAR":"0.00063427000000","SITE":"AFETR","RA_OF_ASC_NODE":"12.9132","TLE_LINE1":"1 49422U 21104Q   23090.15075874  .00009825  00000-0  63427-3 0  9999","REF_FRAME":"TEME","PERIOD":"95.437","CLASSIFICATION_TYPE":"U","RCS_SIZE":"LARGE","TLE_LINE2":"2 49422  53.2178  12.9132 0001116  94.9288 265.1831 15.08854876 77514","ARG_OF_PERICENTER":"94.9288","EPOCH":"2023-03-31T03:37:05.555136","ELEMENT_SET_NO":"999","TIME_SYSTEM":"UTC","MEAN_ELEMENT_THEORY":"SGP4","ECCENTRICITY":"0.00011160","GP_ID":"229193263","MEAN_MOTION":"15.08854876"},{"SEMIMAJOR_AXIS":"6917.891","CENTER_NAME":"EARTH","MEAN_MOTION_DOT":"0.00000538","MEAN_MOTION_DDOT":"0.0000000000000","BSTAR":"0.00005190300000","FILE":"3876580","PERIAPSIS":"538.852","OBJECT_TYPE":"PAYLOAD","REV_AT_EPOCH":"7758","OBJECT_ID":"2021-104R","INCLINATION":"53.2168","OBJECT_NAME":"STARLINK-3149","MEAN_ANOMALY":"262.0865","EPHEMERIS_TYPE":"0","COUNTRY_CODE":"US","LAUNCH_DATE":"2021-11-13","DECAY_DATE":null,"NORAD_CAT_ID":"49423","APOAPSIS":"540.659","ECCENTRICITY":"0.00013060","GP_ID":"229207404","MEAN_ELEMENT_THEORY":"SGP4","MEAN_MOTION":"15.08836584","TLE_LINE2":"2 49423  53.2168  10.0206 0001306  98.0276 262.0865 15.08836584 77584","ARG_OF_PERICENTER":"98.0276","EPOCH":"2023-03-31T19:04:27.900768","ELEMENT_SET_NO":"999","TIME_SYSTEM":"UTC","CLASSIFICATION_TYPE":"U","PERIOD":"95.438","RCS_SIZE":"LARGE","RA_OF_ASC_NODE":"10.0206","SITE":"AFETR","REF_FRAME":"TEME","TLE_LINE1":"1 49423U 21104R   23090.79476737  .00000538  00000-0  51903-4 0  9992"},{"APOAPSIS":"540.324","NORAD_CAT_ID":"49424","EPHEMERIS_TYPE":"0","OBJECT_NAME":"STARLINK-3135","INCLINATION":"53.2177","MEAN_ANOMALY":"263.6368","OBJECT_ID":"2021-104S","DECAY_DATE":null,"LAUNCH_DATE":"2021-11-13","COUNTRY_CODE":"US","PERIAPSIS":"538.924","REV_AT_EPOCH":"7749","OBJECT_TYPE":"PAYLOAD","MEAN_MOTION_DOT":"0.00039785","SEMIMAJOR_AXIS":"6917.759","CENTER_NAME":"EARTH","FILE":"3875956","MEAN_MOTION_DDOT":"0.0000000000000","BSTAR":"0.00250110000000","SITE":"AFETR","RA_OF_ASC_NODE":"12.6466","TLE_LINE1":"1 49424U 21104S   23090.20963952  .00039785  00000-0  25011-2 0  9994","REF_FRAME":"TEME","PERIOD":"95.435","CLASSIFICATION_TYPE":"U","RCS_SIZE":"LARGE","TLE_LINE2":"2 49424  53.2177  12.6466 0001012  96.4739 263.6368 15.08879728 77493","ARG_OF_PERICENTER":"96.4739","EPOCH":"2023-03-31T05:01:52.854528","ELEMENT_SET_NO":"999","TIME_SYSTEM":"UTC","MEAN_ELEMENT_THEORY":"SGP4","ECCENTRICITY":"0.00010120","GP_ID":"229193289","MEAN_MOTION":"15.08879728"},{"REV_AT_EPOCH":"7750","OBJECT_TYPE":"PAYLOAD","PERIAPSIS":"538.683","FILE":"3875956","MEAN_MOTION_DDOT":"0.0000000000000","BSTAR":"0.00097443000000","MEAN_MOTION_DOT":"0.00015258","SEMIMAJOR_AXIS":"6917.853","CENTER_NAME":"EARTH","APOAPSIS":"540.753","NORAD_CAT_ID":"49425","DECAY_DATE":null,"COUNTRY_CODE":"US","LAUNCH_DATE":"2021-11-13","MEAN_ANOMALY":"257.9573","OBJECT_NAME":"STARLINK-3139","EPHEMERIS_TYPE":"0","INCLINATION":"53.2169","OBJECT_ID":"2021-104T","EPOCH":"2023-03-31T04:42:04.190112","ELEMENT_SET_NO":"999","TIME_SYSTEM":"UTC","ARG_OF_PERICENTER":"102.1587","TLE_LINE2":"2 49425  53.2169  12.7160 0001496 102.1587 257.9573 15.08848865 77503","MEAN_MOTION":"15.08848865","MEAN_ELEMENT_THEORY":"SGP4","GP_ID":"229192788","ECCENTRICITY":"0.00014960","TLE_LINE1":"1 49425U 21104T   23090.19588183  .00015258  00000-0  97443-3 0  9990","REF_FRAME":"TEME","SITE":"AFETR","RA_OF_ASC_NODE":"12.7160","RCS_SIZE":"LARGE","PERIOD":"95.437","CLASSIFICATION_TYPE":"U"},{"APOAPSIS":"540.732","NORAD_CAT_ID":"49426","MEAN_ANOMALY":"263.0263","INCLINATION":"53.2187","EPHEMERIS_TYPE":"0","OBJECT_NAME":"STARLINK-3114","OBJECT_ID":"2021-104U","DECAY_DATE":null,"LAUNCH_DATE":"2021-11-13","COUNTRY_CODE":"US","PERIAPSIS":"538.680","REV_AT_EPOCH":"7749","OBJECT_TYPE":"PAYLOAD","MEAN_MOTION_DOT":"0.00031199","CENTER_NAME":"EARTH","SEMIMAJOR_AXIS":"6917.841","FILE":"3876004","BSTAR":"0.00196900000000","MEAN_MOTION_DDOT":"0.0000000000000","SITE":"AFETR","RA_OF_ASC_NODE":"12.9754","TLE_LINE1":"1 49426U 21104U   23090.13604399  .00031199  00000-0  19690-2 0  9992","REF_FRAME":"TEME","PERIOD":"95.437","CLASSIFICATION_TYPE":"U","RCS_SIZE":"LARGE","ARG_OF_PERICENTER":"97.0898","TLE_LINE2":"2 49426  53.2187  12.9754 0001483  97.0898 263.0263 15.08852941 77490","TIME_SYSTEM":"UTC","EPOCH":"2023-03-31T03:15:54.200736","ELEMENT_SET_NO":"999","MEAN_ELEMENT_THEORY":"SGP4","GP_ID":"229194458","ECCENTRICITY":"0.00014830","MEAN_MOTION":"15.08852941"},{"OBJECT_TYPE":"PAYLOAD","REV_AT_EPOCH":"7760","PERIAPSIS":"538.460","MEAN_MOTION_DDOT":"0.0000000000000","BSTAR":"0.00084050000000","FILE":"3876583","SEMIMAJOR_AXIS":"6917.848","CENTER_NAME":"EARTH","MEAN_MOTION_DOT":"0.00013118","NORAD_CAT_ID":"49427","APOAPSIS":"540.967","LAUNCH_DATE":"2021-11-13","COUNTRY_CODE":"US","DECAY_DATE":null,"OBJECT_ID":"2021-104V","EPHEMERIS_TYPE":"0","OBJECT_NAME":"STARLINK-3131","MEAN_ANOMALY":"257.9586","INCLINATION":"53.2170","EPOCH":"2023-03-31T18:53:52.084896","ELEMENT_SET_NO":"999","TIME_SYSTEM":"UTC","TLE_LINE2":"2 49427  53.2170  10.0501 0001812 102.1609 257.9586 15.08850496 77602","ARG_OF_PERICENTER":"102.1609","MEAN_MOTION":"15.08850496","GP_ID":"229207944","ECCENTRICITY":"0.00018120","MEAN_ELEMENT_THEORY":"SGP4","REF_FRAME":"TEME","TLE_LINE1":"1 49427U 21104V   23090.78740839  .00013118  00000-0  84050-3 0  9998","RA_OF_ASC_NODE":"10.0501","SITE":"AFETR","RCS_SIZE":"LARGE","CLASSIFICATION_TYPE":"U","PERIOD":"95.437"},{"CLASSIFICATION_TYPE":"U","PERIOD":"95.438","RCS_SIZE":"LARGE","RA_OF_ASC_NODE":"12.7722","SITE":"AFETR","REF_FRAME":"TEME","TLE_LINE1":"1 49428U 21104W   23090.18116306  .00001361  00000-0  10362-3 0  9991","GP_ID":"229193538","ECCENTRICITY":"0.00014430","MEAN_ELEMENT_THEORY":"SGP4","MEAN_MOTION":"15.08836230","ARG_OF_PERICENTER":"97.0837","TLE_LINE2":"2 49428  53.2171  12.7722 0001443  97.0837 263.0319 15.08836230 77492","TIME_SYSTEM":"UTC","ELEMENT_SET_NO":"999","EPOCH":"2023-03-31T04:20:52.488384","OBJECT_ID":"2021-104W","OBJECT_NAME":"STARLINK-3121","MEAN_ANOMALY":"263.0319","INCLINATION":"53.2171","EPHEMERIS_TYPE":"0","COUNTRY_CODE":"US","LAUNCH_DATE":"2021-11-13","DECAY_DATE":null,"NORAD_CAT_ID":"49428","APOAPSIS":"540.755","CENTER_NAME":"EARTH","SEMIMAJOR_AXIS":"6917.892","MEAN_MOTION_DOT":"0.00001361","BSTAR":"0.00010362000000","MEAN_MOTION_DDOT":"0.0000000000000","FILE":"3875965","PERIAPSIS":"538.759","OBJECT_TYPE":"PAYLOAD","REV_AT_EPOCH":"7749"},{"RCS_SIZE":"LARGE","CLASSIFICATION_TYPE":"U","PERIOD":"95.437","REF_FRAME":"TEME","TLE_LINE1":"1 49430U 21104Y   23090.18756431  .00013344  00000-0  85474-3 0  9993","RA_OF_ASC_NODE":"12.7444","SITE":"AFETR","MEAN_MOTION":"15.08847078","GP_ID":"229193898","ECCENTRICITY":"0.00013480","MEAN_ELEMENT_THEORY":"SGP4","TIME_SYSTEM":"UTC","ELEMENT_SET_NO":"999","EPOCH":"2023-03-31T04:30:05.556384","TLE_LINE2":"2 49430  53.2164  12.7444 0001348 106.2144 253.8997 15.08847078 77497","ARG_OF_PERICENTER":"106.2144","COUNTRY_CODE":"US","LAUNCH_DATE":"2021-11-13","DECAY_DATE":null,"OBJECT_ID":"2021-104Y","EPHEMERIS_TYPE":"0","OBJECT_NAME":"STARLINK-3138","MEAN_ANOMALY":"253.8997","INCLINATION":"53.2164","NORAD_CAT_ID":"49430","APOAPSIS":"540.656","BSTAR":"0.00085474000000","MEAN_MOTION_DDOT":"0.0000000000000","FILE":"3875994","CENTER_NAME":"EARTH","SEMIMAJOR_AXIS":"6917.859","MEAN_MOTION_DOT":"0.00013344","OBJECT_TYPE":"PAYLOAD","REV_AT_EPOCH":"7749","PERIAPSIS":"538.791"},{"TLE_LINE2":"2 49431  53.2188  13.2250 0001699 102.4293 257.6890 15.08854040 77487","ARG_OF_PERICENTER":"102.4293","TIME_SYSTEM":"UTC","ELEMENT_SET_NO":"999","EPOCH":"2023-03-31T01:57:47.543328","ECCENTRICITY":"0.00016990","GP_ID":"229193591","MEAN_ELEMENT_THEORY":"SGP4","MEAN_MOTION":"15.08854040","RA_OF_ASC_NODE":"13.2250","SITE":"AFETR","REF_FRAME":"TEME","TLE_LINE1":"1 49431U 21104Z   23090.08180027  .00006431  00000-0  42164-3 0  9993","CLASSIFICATION_TYPE":"U","PERIOD":"95.437","RCS_SIZE":"LARGE","PERIAPSIS":"538.527","OBJECT_TYPE":"PAYLOAD","REV_AT_EPOCH":"7748","CENTER_NAME":"EARTH","SEMIMAJOR_AXIS":"6917.837","MEAN_MOTION_DOT":"0.00006431","BSTAR":"0.00042164000000","MEAN_MOTION_DDOT":"0.0000000000000","FILE":"3875976","NORAD_CAT_ID":"49431","APOAPSIS":"540.878","OBJECT_ID":"2021-104Z","MEAN_ANOMALY":"257.6890","INCLINATION":"53.2188","EPHEMERIS_TYPE":"0","OBJECT_NAME":"STARLINK-3153","COUNTRY_CODE":"US","LAUNCH_DATE":"2021-11-13","DECAY_DATE":null},{"SITE":"AFETR","RA_OF_ASC_NODE":"359.6348","TLE_LINE1":"1 49432U 21104AA  23090.88128200  .00007920  00000-0  51512-3 0  9998","REF_FRAME":"TEME","PERIOD":"95.438","CLASSIFICATION_TYPE":"U","RCS_SIZE":"LARGE","TLE_LINE2":"2 49432  53.2176 359.6348 0001123  93.4720 266.6401 15.08840375 77749","ARG_OF_PERICENTER":"93.4720","ELEMENT_SET_NO":"999","EPOCH":"2023-03-31T21:09:02.764800","TIME_SYSTEM":"UTC","MEAN_ELEMENT_THEORY":"SGP4","GP_ID":"229207807","ECCENTRICITY":"0.00011230","MEAN_MOTION":"15.08840375","APOAPSIS":"540.521","NORAD_CAT_ID":"49432","INCLINATION":"53.2176","OBJECT_NAME":"STARLINK-3158","MEAN_ANOMALY":"266.6401","EPHEMERIS_TYPE":"0","OBJECT_ID":"2021-104AA","DECAY_DATE":null,"COUNTRY_CODE":"US","LAUNCH_DATE":"2021-11-13","PERIAPSIS":"538.967","REV_AT_EPOCH":"7774","OBJECT_TYPE":"PAYLOAD","MEAN_MOTION_DOT":"0.00007920","SEMIMAJOR_AXIS":"6917.879","CENTER_NAME":"EARTH","FILE":"3876611","MEAN_MOTION_DDOT":"0.0000000000000","BSTAR":"0.00051512000000"}];
